[{"OBJECT_NAME":"STARLINK-32389","OBJECT_ID":"2024-184T","EPOCH":"2026-03-09T03:31:42.783744","MEAN_MOTION":15.30190121,"ECCENTRICITY":9.544e-5,"INCLINATION":53.1625,"RA_OF_ASC_NODE":16.4831,"ARG_OF_PERICENTER":87.2231,"MEAN_ANOMALY":272.8879,"EPHEMERIS_TYPE":0,"CLASSIFICATION_TYPE":"U","NORAD_CAT_ID":61549,"ELEMENT_SET_NO":999,"REV_AT_EPOCH":7842,"BSTAR":-9.07574e-6,"MEAN_MOTION_DOT":-6.28e-6,"MEAN_MOTION_DDOT":0},{"OBJECT_NAME":"OBJECT L","OBJECT_ID":"2024-024L","EPOCH":"2026-03-09T22:36:05.522976","MEAN_MOTION":15.29373491,"ECCENTRICITY":0.00073185,"INCLINATION":97.3169,"RA_OF_ASC_NODE":137.7038,"ARG_OF_PERICENTER":167.6369,"MEAN_ANOMALY":192.5052,"EPHEMERIS_TYPE":0,"CLASSIFICATION_TYPE":"U","NORAD_CAT_ID":58927,"ELEMENT_SET_NO":999,"REV_AT_EPOCH":9318,"BSTAR":0.00043092344,"MEAN_MOTION_DOT":0.00012217,"MEAN_MOTION_DDOT":0}]
